STARLINK-34110          
1 63811U 25092H   25141.58335648 -.01595058  00000+0 -14253-1 0  9992
2 63811  43.0003  27.1855 0001614 268.8471  85.9224 15.70378701  3942
STARLINK-34101          
1 63812U 25092J   25141.58335648 -.01596496  00000+0 -14266-1 0  9994
2 63812  43.0003  27.1805 0001736 266.4623  90.2236 15.70379810  3793
STARLINK-34065          
1 63813U 25092K   25141.58335648 -.01598577  00000+0 -14286-1 0  9999
2 63813  43.0001  27.1753 0001621 266.8194  91.7807 15.70382555  3851
STARLINK-34057          
1 63814U 25092L   25141.58335648 -.01597656  00000+0 -14279-1 0  9999
2 63814  43.0001  27.1708 0001520 263.3755  97.1459 15.70379868  3895
STARLINK-34060          
1 63815U 25092M   25141.58335648 -.01598305  00000+0 -14285-1 0  9999
2 63815  43.0002  27.1656 0001597 263.6349  98.8041 15.70379938  3797
STARLINK-34048          
1 63816U 25092N   25141.58335648 -.01599339  00000+0 -14294-1 0  9998
2 63816  43.0001  27.1608 0001621 267.4384  96.9142 15.70382003  3948
STARLINK-33959          
1 63817U 25092P   25141.58335648 -.01599038  00000+0 -14290-1 0  9991
2 63817  43.0002  27.1562 0001609 269.8852  96.3822 15.70383745  3944
STARLINK-34058          
1 63818U 25092Q   25141.58335648 -.01601357  00000+0 -14316-1 0  9999
2 63818  43.0001  27.1509 0001400 261.9501 106.2395 15.70381481  3949
STARLINK-34055          
1 63819U 25092R   25141.58335648 -.01743135  00000+0 -12444-1 0  9991
2 63819  43.0003  26.9306 0001435 268.8316 188.2261 15.75823891  3901
STARLINK-33794          
1 63820U 25092S   25141.58335648 -.01523361  00000+0 -13582-1 0  9994
2 63820  43.0003  27.1415 0000850 292.1142  79.9629 15.70306816  3894
STARLINK-34047          
1 63821U 25092T   25141.58335648 -.01599703  00000+0 -14297-1 0  9992
2 63821  43.0003  27.1376 0001749 263.9403 109.9978 15.70381732  3942
STARLINK-34094          
1 63822U 25092U   25141.58335648 -.01599985  00000+0 -14300-1 0  9990
2 63822  43.0004  27.1327 0001642 267.9423 107.9129 15.70382598  3945
STARLINK-34043          
1 63823U 25092V   25141.58335648 -.01598742  00000+0 -14287-1 0  9995
2 63823  43.0004  27.1277 0001696 269.6876 108.0823 15.70382864  3893
STARLINK-34025          
1 63824U 25092W   25141.58335648 -.01598821  00000+0 -14288-1 0  9995
2 63824  43.0005  27.1229 0001678 267.7082 111.9800 15.70382716  3849
STARLINK-33874          
1 63825U 25092X   25141.58335648 -.01594822  00000+0 -14251-1 0  9993
2 63825  43.0000  27.1174 0001389 269.4773 112.1276 15.70380410  3949
STARLINK-33781          
1 63826U 25092Y   25141.58335648 -.01600136  00000+0 -14302-1 0  9997
2 63826  43.0002  27.1129 0001514 262.4061 121.1163 15.70383139  3941
STARLINK-33891          
1 63827U 25092Z   25141.58335648 -.01595267  00000+0 -14256-1 0  9994
2 63827  43.0004  27.1085 0001362 267.7079 117.7325 15.70379810  3844
STARLINK-33903          
1 63828U 25092AA  25141.58335648 -.01595394  00000+0 -14257-1 0  9997
2 63828  43.0002  27.1028 0001374 267.4538 119.9033 15.70380145  3944
STARLINK-33889          
1 63829U 25092AB  25141.58335648 -.01599295  00000+0 -14294-1 0  9993
2 63829  43.0002  27.0881 0001541 264.9601 128.1485 15.70382102  3858
STARLINK-33984          
1 63830U 25092AC  25141.58335648 -.01599908  00000+0 -14298-1 0  9990
2 63830  43.0003  27.0978 0001754 267.8112 121.4618 15.70383443  3902
STARLINK-33940          
1 63831U 25092AD  25141.58335648 -.01596253  00000+0 -14265-1 0  9995
2 63831  43.0001  27.0831 0001518 265.4392 129.5877 15.70379715  3948
STARLINK-33978          
1 63832U 25092AE  25141.58335648 -.01601023  00000+0 -14311-1 0  9990
2 63832  42.9997  27.0923 0001440 265.4636 125.7270 15.70383773  3942
HERMES-5                
1 63834U 25052BQ  25141.58277568  .00005409  00000+0  26936-3 0  9995
2 63834  97.4447  35.7603 0007749  83.1084 277.1031 15.17973194 10353
STARLINK-34018          
1 63836U 25093A   25141.58335648 -.01537848  00000+0 -17154-1 0  9996
2 63836  42.9993 292.4810 0001371 257.6262  32.4286 15.64896969  3250
STARLINK-34053          
1 63837U 25093B   25141.58335648 -.01533472  00000+0 -17102-1 0  9999
2 63837  42.9993 292.4764 0001365 255.5987  36.3745 15.64893032  3197
STARLINK-34042          
1 63838U 25093C   25141.58335648 -.01537337  00000+0 -17148-1 0  9994
2 63838  42.9993 292.4711 0001336 260.7393  33.1502 15.64896722  3259
STARLINK-34040          
1 63839U 25093D   25141.58335648 -.01536209  00000+0 -17134-1 0  9997
2 63839  42.9993 292.4659 0001547 266.7785  29.0294 15.64894493  3251
STARLINK-33990          
1 63840U 25093E   25141.58335648 -.01535894  00000+0 -17130-1 0  9994
2 63840  42.9994 292.4616 0001579 260.7786  36.9465 15.64894265  3037
STARLINK-34056          
1 63841U 25093F   25141.58335648 -.01535332  00000+0 -17123-1 0  9994
2 63841  42.9994 292.4567 0001584 261.9359  37.7059 15.64894167  3037
STARLINK-34026          
1 63842U 25093G   25141.58335648 -.01534710  00000+0 -17117-1 0  9997
2 63842  42.9992 292.4518 0001297 254.6819  46.8757 15.64894389  3035
STARLINK-33777          
1 63843U 25093H   25141.58335648 -.01532085  00000+0 -17085-1 0  9995
2 63843  42.9993 292.4476 0001356 256.6896  46.7855 15.64892630  3252
STARLINK-34041          
1 63844U 25093J   25141.58335648 -.01538777  00000+0 -17165-1 0  9999
2 63844  42.9994 292.4421 0001568 268.5819  36.8106 15.64895931  3252
STARLINK-34011          
1 63845U 25093K   25141.58335648 -.01539574  00000+0 -17175-1 0  9997
2 63845  42.9992 292.4384 0001326 259.0668  48.2409 15.64898272  3038
STARLINK-34044          
1 63846U 25093L   25141.58335648 -.01537666  00000+0 -17152-1 0  9993
2 63846  42.9993 292.4328 0001418 260.8083  48.4188 15.64896103  3038
STARLINK-34037          
1 63847U 25093M   25141.58335648 -.01538534  00000+0 -17162-1 0  9990
2 63847  42.9993 292.4282 0001560 267.3069  43.8369 15.64895954  3259
STARLINK-34010          
1 63848U 25093N   25141.58335648 -.01539966  00000+0 -17179-1 0  9999
2 63848  42.9992 292.4233 0001525 266.7503  46.3102 15.64897621  3034
STARLINK-34009          
1 63849U 25093P   25141.58335648 -.01539997  00000+0 -17180-1 0  9996
2 63849  42.9992 292.4185 0001343 259.9848  54.9912 15.64898534  3257
STARLINK-33958          
1 63850U 25093Q   25141.58335648 -.01537768  00000+0 -17153-1 0  9992
2 63850  42.9994 292.4132 0001403 259.7666  57.1278 15.64896659  3094
STARLINK-33776          
1 63851U 25093R   25141.58335648 -.01537557  00000+0 -17150-1 0  9996
2 63851  42.9992 292.4086 0001574 265.4411  53.3717 15.64895484  3240
STARLINK-34032          
1 63853U 25093T   25141.58335648 -.01620427  00000+0 -15047-1 0  9990
2 63853  42.9993 292.0088 0001345 266.3173 211.9431 15.69516352  3268
STARLINK-34015          
1 63854U 25093U   25141.58335648 -.01643887  00000+0 -15279-1 0  9993
2 63854  42.9994 292.0047 0001014 269.0673 211.0888 15.69541873  3097
STARLINK-33969          
1 63855U 25093V   25141.58335648 -.01642849  00000+0 -15268-1 0  9999
2 63855  42.9993 291.9997 0001095 267.1430 214.9306 15.69541201  3034
STARLINK-34002          
1 63856U 25093W   25141.58335648 -.01643708  00000+0 -15276-1 0  9994
2 63856  42.9993 291.9943 0001162 265.5252 218.4647 15.69542117  3039
STARLINK-33999          
1 63857U 25093X   25141.58335648 -.01643783  00000+0 -15277-1 0  9999
2 63857  42.9993 291.9860 0001111 266.1257 221.6982 15.69542308  3269
STARLINK-33976          
1 63858U 25093Y   25141.58335648 -.01643244  00000+0 -15272-1 0  9997
2 63858  42.9993 291.9898 0001138 269.0619 216.8469 15.69541008  3109
STARLINK-33821          
1 63859U 25093Z   25141.58335648 -.02081343  00000+0 -20898-1 0  9995
2 63859  42.9991 291.4388 0001506 267.9865  76.0783 15.67927012  3258
STARLINK-33888          
1 63860U 25093AA  25141.58335648 -.01647516  00000+0 -15318-1 0  9997
2 63860  42.9995 291.9808 0001074 271.9281 217.8187 15.69539939  3266
STARLINK-33896          
1 63861U 25093AB  25141.58335648 -.01644403  00000+0 -15284-1 0  9992
2 63861  42.9993 291.9748 0001295 266.5093 225.1533 15.69539663  3041
STARLINK-33878          
1 63862U 25093AC  25141.58335648 -.02039651  00000+0 -19497-1 0  9997
2 63862  42.9990 291.3754 0001494 273.7831  95.0954 15.69038728  3262
STARLINK-33954          
1 63863U 25093AD  25141.58335648 -.01641202  00000+0 -15253-1 0  9994
2 63863  42.9994 291.9701 0001219 266.9303 226.6521 15.69536356  3046
STARLINK-33863          
1 63864U 25094A   25141.58335648 -.01011068  00000+0 -57351-2 0  9993
2 63864  69.9946 275.4302 0003732 276.3099 282.4023 15.81321462  3047
STARLINK-33897          
1 63865U 25094B   25141.58335648 -.01008727  00000+0 -57229-2 0  9996
2 63865  69.9947 275.4272 0003817 275.3010 285.8578 15.81310158  2930
STARLINK-34022          
1 63866U 25094C   25141.58335648 -.01025062  00000+0 -58292-2 0  9999
2 63866  69.9945 275.4240 0003804 277.5955 286.1780 15.81302102  2931
STARLINK-33979          
1 63867U 25094D   25141.58335648 -.01029488  00000+0 -58665-2 0  9990
2 63867  69.9946 275.4206 0003818 274.6336 292.1495 15.81268851  2821
STARLINK-34007          
1 63868U 25094E   25141.58335648 -.01041177  00000+0 -59443-2 0  9995
2 63868  69.9944 275.4172 0003803 276.0210 293.3201 15.81258815  2932
STARLINK-34006          
1 63869U 25094F   25141.58335648 -.01043549  00000+0 -59665-2 0  9997
2 63869  69.9941 275.4135 0003831 274.9875 297.1297 15.81233333  3042
STARLINK-33986          
1 63870U 25094G   25141.58335648 -.01053873  00000+0 -60398-2 0  9995
2 63870  69.9942 275.4104 0003808 275.2951 299.6521 15.81209652  2935
STARLINK-34013          
1 63871U 25094H   25141.58335648 -.01059694  00000+0 -60816-2 0  9998
2 63871  69.9943 275.4078 0003784 275.7402 301.7551 15.81195344  2835
STARLINK-34059          
1 63872U 25094J   25141.58335648 -.01072581  00000+0 -61723-2 0  9997
2 63872  69.9942 275.4040 0003783 275.3085 305.0302 15.81170631  2985
STARLINK-33987          
1 63873U 25094K   25141.58335648 -.01076399  00000+0 -62059-2 0  9992
2 63873  69.9941 275.4006 0003836 274.5611 308.6179 15.81139505  3046
